{
  "links" : {
    "next" : "https://api.nasa.gov/neo/rest/v1/feed?start_date=2006-06-23&end_date=2006-06-23&detailed=true&api_key=t0TVs3DtDT2H8Oy2Zy8m2eVrNsAVKAexjcZXUckd",
    "prev" : "https://api.nasa.gov/neo/rest/v1/feed?start_date=2006-06-21&end_date=2006-06-21&detailed=true&api_key=t0TVs3DtDT2H8Oy2Zy8m2eVrNsAVKAexjcZXUckd",
    "self" : "https://api.nasa.gov/neo/rest/v1/feed?start_date=2006-06-22&end_date=2006-06-22&detailed=true&api_key=t0TVs3DtDT2H8Oy2Zy8m2eVrNsAVKAexjcZXUckd"
  },
  "element_count" : 9,
  "near_earth_objects" : {
    "2006-06-22" : [ {
      "links" : {
        "self" : "https://api.nasa.gov/neo/rest/v1/neo/3754386?api_key=t0TVs3DtDT2H8Oy2Zy8m2eVrNsAVKAexjcZXUckd"
      },
      "neo_reference_id" : "3754386",
      "name" : "(2016 NV)",
      "nasa_jpl_url" : "http://ssd.jpl.nasa.gov/sbdb.cgi?sstr=3754386",
      "absolute_magnitude_h" : 19.8,
      "estimated_diameter" : {
        "kilometers" : {
          "estimated_diameter_min" : 0.2914439045,
          "estimated_diameter_max" : 0.6516883822
        },
        "meters" : {
          "estimated_diameter_min" : 291.4439045349,
          "estimated_diameter_max" : 651.6883821679
        },
        "miles" : {
          "estimated_diameter_min" : 0.1810947904,
          "estimated_diameter_max" : 0.4049402617
        },
        "feet" : {
          "estimated_diameter_min" : 956.1808197541,
          "estimated_diameter_max" : 2138.0853117517
        }
      },
      "is_potentially_hazardous_asteroid" : true,
      "close_approach_data" : [ {
        "close_approach_date" : "2006-06-22",
        "epoch_date_close_approach" : 1150959600000,
        "relative_velocity" : {
          "kilometers_per_second" : "9.8525151299",
          "kilometers_per_hour" : "35469.0544675794",
          "miles_per_hour" : "22039.0910940357"
        },
        "miss_distance" : {
          "astronomical" : "0.4315256889",
          "lunar" : "167.863494873",
          "kilometers" : "64555324",
          "miles" : "40112820"
        },
        "orbiting_body" : "Earth"
      } ],
      "orbital_data" : {
        "orbit_id" : "45",
        "orbit_determination_date" : "2017-04-06 08:25:12",
        "orbit_uncertainty" : "3",
        "minimum_orbit_intersection" : ".0151958",
        "jupiter_tisserand_invariant" : "5.030",
        "epoch_osculation" : "2458000.5",
        "eccentricity" : ".2367037197621155",
        "semi_major_axis" : "1.265951056342518",
        "inclination" : "16.29168889742051",
        "ascending_node_longitude" : "255.1733794564921",
        "orbital_period" : "520.2640293096432",
        "perihelion_distance" : ".9662957322694647",
        "perihelion_argument" : "145.1144463428979",
        "aphelion_distance" : "1.565606380415572",
        "perihelion_time" : "2458231.824740987834",
        "mean_anomaly" : "199.9333760088636",
        "mean_motion" : ".6919563523884148",
        "equinox" : "J2000"
      }
    }, {
      "links" : {
        "self" : "https://api.nasa.gov/neo/rest/v1/neo/2470310?api_key=t0TVs3DtDT2H8Oy2Zy8m2eVrNsAVKAexjcZXUckd"
      },
      "neo_reference_id" : "2470310",
      "name" : "470310 (2007 LB15)",
      "nasa_jpl_url" : "http://ssd.jpl.nasa.gov/sbdb.cgi?sstr=2470310",
      "absolute_magnitude_h" : 19.4,
      "estimated_diameter" : {
        "kilometers" : {
          "estimated_diameter_min" : 0.3503926411,
          "estimated_diameter_max" : 0.7835017643
        },
        "meters" : {
          "estimated_diameter_min" : 350.3926411083,
          "estimated_diameter_max" : 783.5017643338
        },
        "miles" : {
          "estimated_diameter_min" : 0.2177238258,
          "estimated_diameter_max" : 0.4868452748
        },
        "feet" : {
          "estimated_diameter_min" : 1149.5821926537,
          "estimated_diameter_max" : 2570.543928497
        }
      },
      "is_potentially_hazardous_asteroid" : true,
      "close_approach_data" : [ {
        "close_approach_date" : "2006-06-22",
        "epoch_date_close_approach" : 1150959600000,
        "relative_velocity" : {
          "kilometers_per_second" : "21.6881456527",
          "kilometers_per_hour" : "78077.324349792",
          "miles_per_hour" : "48514.2130105694"
        },
        "miss_distance" : {
          "astronomical" : "0.2179107641",
          "lunar" : "84.767288208",
          "kilometers" : "32598986",
          "miles" : "20256072"
        },
        "orbiting_body" : "Earth"
      } ],
      "orbital_data" : {
        "orbit_id" : "48",
        "orbit_determination_date" : "2017-09-01 06:21:57",
        "orbit_uncertainty" : "0",
        "minimum_orbit_intersection" : ".00624191",
        "jupiter_tisserand_invariant" : "6.251",
        "epoch_osculation" : "2458000.5",
        "eccentricity" : ".39522633699663",
        "semi_major_axis" : ".9384403581427148",
        "inclination" : "25.19224259060089",
        "ascending_node_longitude" : "262.8094814846262",
        "orbital_period" : "332.0537901399789",
        "perihelion_distance" : ".567544012904164",
        "perihelion_argument" : "237.354074977114",
        "aphelion_distance" : "1.309336703381266",
        "perihelion_time" : "2458157.998546059799",
        "mean_anomaly" : "189.2461093197407",
        "mean_motion" : "1.084161695152584",
        "equinox" : "J2000"
      }
    }, {
      "links" : {
        "self" : "https://api.nasa.gov/neo/rest/v1/neo/3775208?api_key=t0TVs3DtDT2H8Oy2Zy8m2eVrNsAVKAexjcZXUckd"
      },
      "neo_reference_id" : "3775208",
      "name" : "(2017 LE1)",
      "nasa_jpl_url" : "http://ssd.jpl.nasa.gov/sbdb.cgi?sstr=3775208",
      "absolute_magnitude_h" : 25.712,
      "estimated_diameter" : {
        "kilometers" : {
          "estimated_diameter_min" : 0.0191493914,
          "estimated_diameter_max" : 0.042819341
        },
        "meters" : {
          "estimated_diameter_min" : 19.1493914306,
          "estimated_diameter_max" : 42.8193409667
        },
        "miles" : {
          "estimated_diameter_min" : 0.0118988765,
          "estimated_diameter_max" : 0.0266066967
        },
        "feet" : {
          "estimated_diameter_min" : 62.8260893813,
          "estimated_diameter_max" : 140.4834066171
        }
      },
      "is_potentially_hazardous_asteroid" : false,
      "close_approach_data" : [ {
        "close_approach_date" : "2006-06-22",
        "epoch_date_close_approach" : 1150959600000,
        "relative_velocity" : {
          "kilometers_per_second" : "6.6169245925",
          "kilometers_per_hour" : "23820.9285331764",
          "miles_per_hour" : "14801.3986210728"
        },
        "miss_distance" : {
          "astronomical" : "0.0396049061",
          "lunar" : "15.4063081741",
          "kilometers" : "5924809.5",
          "miles" : "3681506"
        },
        "orbiting_body" : "Earth"
      } ],
      "orbital_data" : {
        "orbit_id" : "4",
        "orbit_determination_date" : "2017-06-21 06:18:35",
        "orbit_uncertainty" : "6",
        "minimum_orbit_intersection" : ".0396656",
        "jupiter_tisserand_invariant" : "6.610",
        "epoch_osculation" : "2458000.5",
        "eccentricity" : ".1883490653693323",
        "semi_major_axis" : ".8954423476719018",
        "inclination" : "11.37876115819551",
        "ascending_node_longitude" : "85.73758395716025",
        "orbital_period" : "309.4958791962998",
        "perihelion_distance" : ".7267866183957784",
        "perihelion_argument" : "346.5430676571976",
        "aphelion_distance" : "1.064098076948025",
        "perihelion_time" : "2458061.603637733107",
        "mean_anomaly" : "288.9253555134851",
        "mean_motion" : "1.163181884472419",
        "equinox" : "J2000"
      }
    } ]
  }
}